HAWK-11A                
1 62382U 24247F   26068.51231358  .00009457  00000+0  34106-3 0  9991
2 62382  44.9941 114.3328 0005466 327.3713  32.6832 15.28849427 67741
STARLINK-35734          
1 66225U 25244V   26068.72911432  .00022688  00000+0  77582-3 0  9996
2 66225  53.1576 229.8587 0001041  60.4989 299.6116 15.30199472 21663
